{"fetched_at":"2026-07-15T17:46:41.762Z","source":"https://celestrak.org/NORAD/elements/gp.php?GROUP=globalstar&FORMAT=JSON","constellation":"globalstar","records":[{"OBJECT_NAME":"GLOBALSTAR M069","OBJECT_ID":"2007-020C","EPOCH":"2026-07-15T03:16:00.378336","CLASSIFICATION_TYPE":"U","MEAN_MOTION":12.23472238,"ECCENTRICITY":0.0001653,"INCLINATION":52.0011,"RA_OF_ASC_NODE":173.0191,"ARG_OF_PERICENTER":210.0553,"MEAN_ANOMALY":232.2825,"EPHEMERIS_TYPE":0,"NORAD_CAT_ID":31573,"ELEMENT_SET_NO":999,"REV_AT_EPOCH":88222,"BSTAR":-0.00018635,"MEAN_MOTION_DOT":-0.00000113,"MEAN_MOTION_DDOT":0},{"OBJECT_NAME":"GLOBALSTAR M072","OBJECT_ID":"2007-020D","EPOCH":"2026-07-15T00:10:48.947808","CLASSIFICATION_TYPE":"U","MEAN_MOTION":11.91658796,"ECCENTRICITY":0.0001656,"INCLINATION":51.9948,"RA_OF_ASC_NODE":26.1802,"ARG_OF_PERICENTER":35.0951,"MEAN_ANOMALY":131.6363,"EPHEMERIS_TYPE":0,"NORAD_CAT_ID":31574,"ELEMENT_SET_NO":999,"REV_AT_EPOCH":87829,"BSTAR":0.00019544,"MEAN_MOTION_DOT":-7e-7,"MEAN_MOTION_DDOT":0},{"OBJECT_NAME":"GLOBALSTAR M066","OBJECT_ID":"2007-048C","EPOCH":"2026-07-14T16:56:28.037184","CLASSIFICATION_TYPE":"U","MEAN_MOTION":12.3038936,"ECCENTRICITY":0.00056177,"INCLINATION":51.961,"RA_OF_ASC_NODE":338.9151,"ARG_OF_PERICENTER":100.5943,"MEAN_ANOMALY":1.9845,"EPHEMERIS_TYPE":0,"NORAD_CAT_ID":32265,"ELEMENT_SET_NO":999,"REV_AT_EPOCH":86361,"BSTAR":0.00028741856,"MEAN_MOTION_DOT":-6.1e-7,"MEAN_MOTION_DDOT":0},{"OBJECT_NAME":"GLOBALSTAR M079","OBJECT_ID":"2010-054A","EPOCH":"2026-07-14T20:39:29.099808","CLASSIFICATION_TYPE":"U","MEAN_MOTION":12.62266417,"ECCENTRICITY":0.00011197,"INCLINATION":52.0053,"RA_OF_ASC_NODE":24.4276,"ARG_OF_PERICENTER":77.0818,"MEAN_ANOMALY":29.8542,"EPHEMERIS_TYPE":0,"NORAD_CAT_ID":37188,"ELEMENT_SET_NO":999,"REV_AT_EPOCH":72604,"BSTAR":0.000009191188,"MEAN_MOTION_DOT":-0.00000102,"MEAN_MOTION_DDOT":0},{"OBJECT_NAME":"GLOBALSTAR M074","OBJECT_ID":"2010-054B","EPOCH":"2026-07-14T17:21:17.853984","CLASSIFICATION_TYPE":"U","MEAN_MOTION":12.62262019,"ECCENTRICITY":0.00008681,"INCLINATION":52.0032,"RA_OF_ASC_NODE":24.1076,"ARG_OF_PERICENTER":92.6101,"MEAN_ANOMALY":348.5918,"EPHEMERIS_TYPE":0,"NORAD_CAT_ID":37189,"ELEMENT_SET_NO":999,"REV_AT_EPOCH":72663,"BSTAR":0.000005441291,"MEAN_MOTION_DOT":-0.00000103,"MEAN_MOTION_DDOT":0},{"OBJECT_NAME":"GLOBALSTAR M076","OBJECT_ID":"2010-054C","EPOCH":"2026-07-15T00:08:33.461376","CLASSIFICATION_TYPE":"U","MEAN_MOTION":12.62262411,"ECCENTRICITY":0.0001092,"INCLINATION":52.0043,"RA_OF_ASC_NODE":23.4522,"ARG_OF_PERICENTER":92.2924,"MEAN_ANOMALY":74.613,"EPHEMERIS_TYPE":0,"NORAD_CAT_ID":37190,"ELEMENT_SET_NO":999,"REV_AT_EPOCH":72638,"BSTAR":0.00011314,"MEAN_MOTION_DOT":-8.4e-7,"MEAN_MOTION_DDOT":0},{"OBJECT_NAME":"GLOBALSTAR M077","OBJECT_ID":"2010-054D","EPOCH":"2026-07-15T03:18:55.220832","CLASSIFICATION_TYPE":"U","MEAN_MOTION":11.67547472,"ECCENTRICITY":0.0002271,"INCLINATION":51.9955,"RA_OF_ASC_NODE":108.3514,"ARG_OF_PERICENTER":225.1845,"MEAN_ANOMALY":282.4065,"EPHEMERIS_TYPE":0,"NORAD_CAT_ID":37191,"ELEMENT_SET_NO":999,"REV_AT_EPOCH":72440,"BSTAR":-0.00039887,"MEAN_MOTION_DOT":-0.000001,"MEAN_MOTION_DDOT":0},{"OBJECT_NAME":"GLOBALSTAR M075","OBJECT_ID":"2010-054E","EPOCH":"2026-07-15T00:19:08.510016","CLASSIFICATION_TYPE":"U","MEAN_MOTION":12.62267841,"ECCENTRICITY":0.0000751,"INCLINATION":51.9953,"RA_OF_ASC_NODE":65.4683,"ARG_OF_PERICENTER":64.7636,"MEAN_ANOMALY":76.0712,"EPHEMERIS_TYPE":0,"NORAD_CAT_ID":37192,"ELEMENT_SET_NO":999,"REV_AT_EPOCH":72545,"BSTAR":0.000076821,"MEAN_MOTION_DOT":-9e-7,"MEAN_MOTION_DDOT":0},{"OBJECT_NAME":"GLOBALSTAR M073","OBJECT_ID":"2010-054F","EPOCH":"2026-07-14T14:30:34.079040","CLASSIFICATION_TYPE":"U","MEAN_MOTION":12.62266896,"ECCENTRICITY":0.0001068,"INCLINATION":52.008,"RA_OF_ASC_NODE":340.8348,"ARG_OF_PERICENTER":96.0877,"MEAN_ANOMALY":344.8315,"EPHEMERIS_TYPE":0,"NORAD_CAT_ID":37193,"ELEMENT_SET_NO":999,"REV_AT_EPOCH":72739,"BSTAR":-0.0000065419,"MEAN_MOTION_DOT":-0.00000105,"MEAN_MOTION_DDOT":0},{"OBJECT_NAME":"GLOBALSTAR M083","OBJECT_ID":"2011-033A","EPOCH":"2026-07-14T12:33:43.432704","CLASSIFICATION_TYPE":"U","MEAN_MOTION":12.62264144,"ECCENTRICITY":0.00007835,"INCLINATION":51.9869,"RA_OF_ASC_NODE":289.2745,"ARG_OF_PERICENTER":106.0658,"MEAN_ANOMALY":267.2317,"EPHEMERIS_TYPE":0,"NORAD_CAT_ID":37739,"ELEMENT_SET_NO":999,"REV_AT_EPOCH":69640,"BSTAR":0.00015962991,"MEAN_MOTION_DOT":-7.5e-7,"MEAN_MOTION_DDOT":0},{"OBJECT_NAME":"GLOBALSTAR M088","OBJECT_ID":"2011-033B","EPOCH":"2026-07-15T03:28:27.359040","CLASSIFICATION_TYPE":"U","MEAN_MOTION":12.62269445,"ECCENTRICITY":0.0000044,"INCLINATION":52.0185,"RA_OF_ASC_NODE":193.8756,"ARG_OF_PERICENTER":117.887,"MEAN_ANOMALY":318.9565,"EPHEMERIS_TYPE":0,"NORAD_CAT_ID":37740,"ELEMENT_SET_NO":999,"REV_AT_EPOCH":69202,"BSTAR":-0.000053796,"MEAN_MOTION_DOT":-0.00000113,"MEAN_MOTION_DDOT":0},{"OBJECT_NAME":"GLOBALSTAR M091","OBJECT_ID":"2011-033C","EPOCH":"2026-07-15T01:54:17.383104","CLASSIFICATION_TYPE":"U","MEAN_MOTION":12.62264243,"ECCENTRICITY":0.0000421,"INCLINATION":51.998,"RA_OF_ASC_NODE":156.9986,"ARG_OF_PERICENTER":22.7023,"MEAN_ANOMALY":57.4452,"EPHEMERIS_TYPE":0,"NORAD_CAT_ID":37741,"ELEMENT_SET_NO":999,"REV_AT_EPOCH":69280,"BSTAR":-0.00010813,"MEAN_MOTION_DOT":-0.00000123,"MEAN_MOTION_DDOT":0},{"OBJECT_NAME":"GLOBALSTAR M085","OBJECT_ID":"2011-033D","EPOCH":"2026-07-15T03:50:19.423392","CLASSIFICATION_TYPE":"U","MEAN_MOTION":12.6226432,"ECCENTRICITY":0.0000777,"INCLINATION":52.0123,"RA_OF_ASC_NODE":108.07,"ARG_OF_PERICENTER":40.8993,"MEAN_ANOMALY":105.6049,"EPHEMERIS_TYPE":0,"NORAD_CAT_ID":37742,"ELEMENT_SET_NO":999,"REV_AT_EPOCH":69332,"BSTAR":0.000017363,"MEAN_MOTION_DOT":-0.00000101,"MEAN_MOTION_DDOT":0},{"OBJECT_NAME":"GLOBALSTAR M081","OBJECT_ID":"2011-033E","EPOCH":"2026-07-15T04:29:19.766112","CLASSIFICATION_TYPE":"U","MEAN_MOTION":12.62265267,"ECCENTRICITY":0.0000667,"INCLINATION":51.9952,"RA_OF_ASC_NODE":110.3917,"ARG_OF_PERICENTER":54.8676,"MEAN_ANOMALY":94.6303,"EPHEMERIS_TYPE":0,"NORAD_CAT_ID":37743,"ELEMENT_SET_NO":999,"REV_AT_EPOCH":69347,"BSTAR":-0.000026973,"MEAN_MOTION_DOT":-0.00000109,"MEAN_MOTION_DDOT":0},{"OBJECT_NAME":"GLOBALSTAR M089","OBJECT_ID":"2011-033F","EPOCH":"2026-07-15T01:42:31.432032","CLASSIFICATION_TYPE":"U","MEAN_MOTION":12.62267582,"ECCENTRICITY":0.0000697,"INCLINATION":51.9936,"RA_OF_ASC_NODE":64.8979,"ARG_OF_PERICENTER":89.4454,"MEAN_ANOMALY":74.5153,"EPHEMERIS_TYPE":0,"NORAD_CAT_ID":37744,"ELEMENT_SET_NO":999,"REV_AT_EPOCH":69430,"BSTAR":0.000077649,"MEAN_MOTION_DOT":-9e-7,"MEAN_MOTION_DDOT":0},{"OBJECT_NAME":"GLOBALSTAR M084","OBJECT_ID":"2011-080A","EPOCH":"2026-07-14T13:49:49.314144","CLASSIFICATION_TYPE":"U","MEAN_MOTION":12.62263488,"ECCENTRICITY":0.0000849,"INCLINATION":52.0022,"RA_OF_ASC_NODE":293.9022,"ARG_OF_PERICENTER":127.8707,"MEAN_ANOMALY":245.7709,"EPHEMERIS_TYPE":0,"NORAD_CAT_ID":38040,"ELEMENT_SET_NO":999,"REV_AT_EPOCH":67222,"BSTAR":0.0001127,"MEAN_MOTION_DOT":-8.4e-7,"MEAN_MOTION_DDOT":0}]}
